52546,STARLINK-3948,2025-12-13T17:43:48.909792,2025-12-14T13:04:14.456627,53.2158,154.7376,0.0001359,90.2373,269.8775,15.08840343,70935-4,19847,1 52546U 22051P   25347.73876053  .00000841  00000+0  70935-4 0  9992,2 52546  53.2158 154.7376 0001359  90.2373 269.8775 15.08840343198472
52548,STARLINK-3931,2025-12-13T21:03:50.668128,2025-12-14T13:04:14.456627,53.2157,154.3452,0.0001325,90.6686,269.4458,15.08842533,58794-4,19849,1 52548U 22051R   25347.87766977  .00000648  00000+0  58794-4 0  9996,2 52548  53.2157 154.3452 0001325  90.6686 269.4458 15.08842533198497
52549,STARLINK-3935,2025-12-13T21:30:20.481696,2025-12-14T13:04:14.456627,53.2169,154.2608,0.0001251,87.1714,272.9421,15.08837512,10821-3,19849,1 52549U 22051S   25347.89607039  .00001435  00000+0  10821-3 0  9995,2 52549  53.2169 154.2608 0001251  87.1714 272.9421 15.08837512198494
52550,STARLINK-3965,2025-12-13T18:03:39.668544,2025-12-14T13:04:14.456627,53.2175,154.9054,0.0001228,93.2948,266.8185,15.08850035,12261-3,19847,1 52550U 22051T   25347.75254246  .00001664  00000+0  12261-3 0  9994,2 52550  53.2175 154.9054 0001228  93.2948 266.8185 15.08850035198478
52551,STARLINK-3969,2025-12-13T21:25:02.877024,2025-12-14T13:04:14.456627,53.2166,154.2768,0.0001245,87.2991,272.8143,15.08834741,52355-4,19849,1 52551U 22051U   25347.89239441  .00000545  00000+0  52355-4 0  9996,2 52551  53.2166 154.2768 0001245  87.2991 272.8143 15.08834741198493
52552,STARLINK-3966,2025-12-13T21:19:46.990848,2025-12-14T13:04:14.456627,53.2167,154.4468,0.0001399,88.9141,271.2012,15.08837387,29593-4,19849,1 52552U 22051V   25347.88873832  .00000183  00000+0  29593-4 0  9990,2 52552  53.2167 154.4468 0001399  88.9141 271.2012 15.08837387198496
52553,STARLINK-3858,2025-12-13T22:07:22.998144,2025-12-14T13:04:14.456627,53.2172,153.8054,0.0001267,86.8161,273.2977,15.08838713,11660-3,19850,1 52553U 22051W   25347.92179396  .00001568  00000+0  11660-3 0  9993,2 52553  53.2172 153.8054 0001267  86.8161 273.2977 15.08838713198508
52554,STARLINK-3770,2025-12-13T20:39:21.500064,2025-12-14T13:04:14.456627,53.215,159.4227,0.0001362,88.8717,271.2431,15.08843584,22693-3,19841,1 52554U 22051X   25347.86066551  .00003326  00000+0  22693-3 0  9997,2 52554  53.2150 159.4227 0001362  88.8717 271.2431 15.08843584198419
52556,STARLINK-3763,2025-12-14T00:00:04.000320,2025-12-14T13:04:14.456627,53.1804,50.8686,0.0002768,35.4048,162.1211,15.69847321,17550-2,596,1 52556U 22051Z   25348.00004630  .00218990  00000+0  17550-2 0  9996,2 52556  53.1804  50.8686 0002768  35.4048 162.1211 15.69847321  5966
52557,STARLINK-3943,2025-12-13T20:53:16.420416,2025-12-14T13:04:14.456627,53.2165,154.3786,0.0001192,79.1193,280.9934,15.08823326,57176-3,19849,1 52557U 22051AA  25347.87032894  .00008819  00000+0  57176-3 0  9990,2 52557  53.2165 154.3786 0001192  79.1193 280.9934 15.08823326198499
52559,STARLINK-3953,2025-12-13T19:35:06.518688,2025-12-14T13:04:14.456627,53.2152,144.802,0.0001349,103.1297,256.9845,15.08823951,-35605-3,19861,1 52559U 22051AC  25347.81604767 -.00005947  00000+0 -35605-3 0  9994,2 52559  53.2152 144.8020 0001349 103.1297 256.9845 15.08823951198611
52560,STARLINK-3956,2025-12-13T22:24:39.414528,2025-12-14T13:04:14.456627,53.2167,144.0912,0.0001178,89.9384,270.1743,15.08841015,72852-4,19863,1 52560U 22051AD  25347.93378952  .00000872  00000+0  72852-4 0  9999,2 52560  53.2167 144.0912 0001178  89.9384 270.1743 15.08841015198637
52561,STARLINK-3955,2025-12-13T20:23:26.708352,2025-12-14T13:04:14.456627,53.2163,159.4724,0.0001284,99.2413,260.8724,15.08836123,84418-4,19841,1 52561U 22051AE  25347.84961468  .00001056  00000+0  84418-4 0  9996,2 52561  53.2163 159.4724 0001284  99.2413 260.8724 15.08836123198415
52562,STARLINK-3957,2025-12-13T22:14:04.314048,2025-12-14T13:04:14.456627,53.2153,144.1254,0.0001379,85.3531,274.7618,15.08851703,27804-3,19863,1 52562U 22051AF  25347.92643882  .00004141  00000+0  27804-3 0  9996,2 52562  53.2153 144.1254 0001379  85.3531 274.7618 15.08851703198637
52563,STARLINK-3942,2025-12-13T22:04:07.770432,2025-12-14T13:04:14.456627,53.2166,159.1581,0.0001222,96.5647,263.5484,15.08834719,80043-4,19842,1 52563U 22051AG  25347.91953438  .00000986  00000+0  80043-4 0  9995,2 52563  53.2166 159.1581 0001222  96.5647 263.5484 15.08834719198422
52564,STARLINK-3959,2025-12-13T21:54:55.139616,2025-12-14T13:04:14.456627,53.216,159.196,0.0001202,93.9383,266.1747,15.08832622,60477-4,19842,1 52564U 22051AH  25347.91313819  .00000675  00000+0  60477-4 0  9993,2 52564  53.2160 159.1960 0001202  93.9383 266.1747 15.08832622198426
52565,STARLINK-3911,2025-12-13T17:33:12.775104,2025-12-14T13:04:14.456627,53.2156,145.001,0.0001194,90.6051,269.5078,15.08836139,-17447-4,19860,1 52565U 22051AJ  25347.73139786 -.00000565  00000+0 -17447-4 0  9992,2 52565  53.2156 145.0010 0001194  90.6051 269.5078 15.08836139198609
52566,STARLINK-3938,2025-12-13T21:21:43.598016,2025-12-14T13:04:14.456627,53.2163,159.2881,0.0001399,85.2439,274.8713,15.08845219,77782-4,19842,1 52566U 22051AK  25347.89008794  .00000950  00000+0  77782-4 0  9998,2 52566  53.2163 159.2881 0001399  85.2439 274.8713 15.08845219198422
52567,STARLINK-3929,2025-12-13T22:08:45.250080,2025-12-14T13:04:14.456627,53.2172,144.1374,0.0001448,90.0889,270.0269,15.08837214,61785-4,19863,1 52567U 22051AL  25347.92274595  .00000695  00000+0  61785-4 0  9999,2 52567  53.2172 144.1374 0001448  90.0889 270.0269 15.08837214198634
52568,STARLINK-3930,2025-12-13T20:17:28.905216,2025-12-14T13:04:14.456627,53.2161,144.4902,0.0001376,84.8116,275.3033,15.08841641,12750-3,19862,1 52568U 22051AM  25347.84547344  .00001742  00000+0  12750-3 0  9997,2 52568  53.2161 144.4902 0001376  84.8116 275.3033 15.08841641198622
52569,STARLINK-3927,2025-12-13T20:28:04.371168,2025-12-14T13:04:14.456627,53.2158,144.457,0.0001331,90.4185,269.696,15.08842547,41360-4,19862,1 52569U 22051AN  25347.85282837  .00000370  00000+0  41360-4 0  9998,2 52569  53.2158 144.4570 0001331  90.4185 269.6960 15.08842547198621
52574,STARLINK-3901,2025-12-13T21:58:05.477088,2025-12-14T13:04:14.456627,53.2167,144.1753,0.0001336,97.9734,262.141,15.08901413,46295-3,19863,1 52574U 22051AQ  25347.91534117  .00007100  00000+0  46295-3 0  9991,2 52574  53.2167 144.1753 0001336  97.9734 262.1410 15.08901413198631
52575,STARLINK-3920,2025-12-13T21:19:03.154944,2025-12-14T13:04:14.456627,53.2044,88.5584,0.0002776,344.0739,16.0196,15.80238841,15229-4,19941,1 52575U 22051AR  25347.88823096  .00002226  00000+0  15229-4 0  9993,2 52575  53.2044  88.5584 0002776 344.0739  16.0196 15.80238841199411
52576,STARLINK-3932,2025-12-13T19:57:39.940128,2025-12-14T13:04:14.456627,53.2174,144.552,0.000131,83.761,276.3532,15.08836224,14673-3,19862,1 52576U 22051AS  25347.83171227  .00002048  00000+0  14673-3 0  9994,2 52576  53.2174 144.5520 0001310  83.7610 276.3532 15.08836224198623
52577,STARLINK-3836,2025-12-13T18:00:21.444480,2025-12-14T13:04:14.456627,53.216,159.9184,0.0001268,79.3222,280.7913,15.08836842,69636-5,19840,1 52577U 22051AT  25347.75024820 -.00000177  00000+0  69636-5 0  9995,2 52577  53.2160 159.9184 0001268  79.3222 280.7913 15.08836842198401
52578,STARLINK-3833,2025-12-13T21:16:26.052096,2025-12-14T13:04:14.456627,53.2158,159.3056,0.0001417,89.6612,270.4543,15.08843557,54261-4,19842,1 52578U 22051AU  25347.88641264  .00000576  00000+0  54261-4 0  9996,2 52578  53.2158 159.3056 0001417  89.6612 270.4543 15.08843557198422
52579,STARLINK-3893,2025-12-13T22:35:55.797792,2025-12-14T13:04:14.456627,53.2165,159.0581,0.0001395,89.7082,270.407,15.08839274,59730-4,19843,1 52579U 22051AV  25347.94161803  .00000663  00000+0  59730-4 0  9993,2 52579  53.2165 159.0581 0001395  89.7082 270.4070 15.08839274198435
52580,STARLINK-3919,2025-12-13T17:56:27.016224,2025-12-14T13:04:14.456627,53.2164,159.9387,0.0001684,90.0396,270.0789,15.08837506,50796-4,19840,1 52580U 22051AW  25347.74753491  .00000520  00000+0  50796-4 0  9998,2 52580  53.2164 159.9387 0001684  90.0396 270.0789 15.08837506198409
52581,STARLINK-3915,2025-12-13T19:50:59.421696,2025-12-14T13:04:14.456627,53.217,144.574,0.0001298,88.8655,271.2486,15.08839509,46237-4,19862,1 52581U 22051AX  25347.82707664  .00000448  00000+0  46237-4 0  9993,2 52581  53.2170 144.5740 0001298  88.8655 271.2486 15.08839509198620
52583,STARLINK-3895,2025-12-13T19:45:41.950080,2025-12-14T13:04:14.456627,53.2185,144.5906,0.0001446,87.8645,272.2513,15.08836349,30348-6,19862,1 52583U 22051AZ  25347.82340220 -.00000283  00000+0  30348-6 0  9992,2 52583  53.2185 144.5906 0001446  87.8645 272.2513 15.08836349198626
52584,STARLINK-3922,2025-12-13T19:56:17.293344,2025-12-14T13:04:14.456627,53.2163,144.5551,0.0001215,84.9285,275.1846,15.08840853,35637-4,19862,1 52584U 22051BA  25347.83075571  .00000279  00000+0  35637-4 0  9996,2 52584  53.2163 144.5551 0001215  84.9285 275.1846 15.08840853198627
52585,STARLINK-3906,2025-12-13T21:05:10.194144,2025-12-14T13:04:14.456627,53.2176,144.3022,0.0001284,93.1173,266.9967,15.08837715,94808-4,19863,1 52585U 22051BB  25347.87859021  .00001221  00000+0  94808-4 0  9994,2 52585  53.2176 144.3022 0001284  93.1173 266.9967 15.08837715198633
52586,STARLINK-3910,2025-12-13T19:40:23.684448,2025-12-14T13:04:14.456627,53.2185,144.6065,0.0001351,99.3062,260.8083,15.08837953,14150-4,19862,1 52586U 22051BC  25347.81971857 -.00000063  00000+0  14150-4 0  9997,2 52586  53.2185 144.6065 0001351  99.3062 260.8083 15.08837953198629
52587,STARLINK-3867,2025-12-13T19:09:56.947392,2025-12-14T13:04:14.456627,53.2169,144.5537,0.0001275,97.3836,262.7301,15.08845308,-82160-4,19862,1 52587U 22051BD  25347.79857578 -.00001595  00000+0 -82160-4 0  9996,2 52587  53.2169 144.5537 0001275  97.3836 262.7301 15.08845308198624
52588,STARLINK-3917,2025-12-13T20:59:52.661184,2025-12-14T13:04:14.456627,53.2179,144.3571,0.0001305,94.1235,265.9906,15.08834843,50764-4,19863,1 52588U 22051BE  25347.87491506  .00000520  00000+0  50764-4 0  9991,2 52588  53.2179 144.3571 0001305  94.1235 265.9906 15.08834843198633
